[{"OBJECT_NAME":"IRIDIUM 147","OBJECT_ID":"2018-047E","EPOCH":"2026-03-09T16:30:46.128960","MEAN_MOTION":14.34216716,"ECCENTRICITY":0.00022292,"INCLINATION":86.3976,"RA_OF_ASC_NODE":129.9478,"ARG_OF_PERICENTER":99.0413,"MEAN_ANOMALY":261.1036,"EPHEMERIS_TYPE":0,"CLASSIFICATION_TYPE":"U","NORAD_CAT_ID":43480,"ELEMENT_SET_NO":999,"REV_AT_EPOCH":40822,"BSTAR":8.9014334e-5,"MEAN_MOTION_DOT":2.69e-6,"MEAN_MOTION_DDOT":0},{"OBJECT_NAME":"FENGYUN 1C DEB","OBJECT_ID":"1999-025BYN","EPOCH":"2026-03-08T13:54:22.342464","MEAN_MOTION":14.2369023,"ECCENTRICITY":0.00510104,"INCLINATION":99.0793,"RA_OF_ASC_NODE":119.0969,"ARG_OF_PERICENTER":9.4681,"MEAN_ANOMALY":350.7446,"EPHEMERIS_TYPE":0,"CLASSIFICATION_TYPE":"U","NORAD_CAT_ID":31547,"ELEMENT_SET_NO":999,"REV_AT_EPOCH":65238,"BSTAR":0.0016389952,"MEAN_MOTION_DOT":3.746e-5,"MEAN_MOTION_DDOT":0}]
